{"type": "FeatureCollection", "features": [ {"type": "Feature", "properties": {"norad_id": 66935, "name": "STARLINK-36127", "group": "last-30-days", "lat": -38.91802962345306, "lon": 4.977766164625926, "alt_km": 294.9672330374251, "timestamp": "2025-12-14T09:36:21.781580+00:00", "meta": {"OBJECT_NAME": "STARLINK-36127", "OBJECT_ID": "2025-286L", "EPOCH": "2025-12-13T14:00:03.000384", "MEAN_MOTION": 15.96178159, "ECCENTRICITY": 7.959e-05, "INCLINATION": 53.1571, "RA_OF_ASC_NODE": 46.4192, "ARG_OF_PERICENTER": 60.9134, "MEAN_ANOMALY": 233.51, "EPHEMERIS_TYPE": 0, "CLASSIFICATION_TYPE": "U", "NORAD_CAT_ID": 66935, "ELEMENT_SET_NO": 999, "REV_AT_EPOCH": 212, "BSTAR": -0.0029125389, "MEAN_MOTION_DOT": -0.01234342, "MEAN_MOTION_DDOT": 0.00046749766}, "tle": {"line1": "1 66935U 25286L   25347.58336806 -.01234342  46750-3 -29125-2 0  9999", "line2": "2 66935  53.1571  46.4192 0000795  60.9134 233.5100 15.96178159  2124"}}, "geometry": {"type": "Point", "coordinates": [4.977766164625926, -38.91802962345306]}}, {"type": "Feature", "properties": {"norad_id": 66936, "name": "STARLINK-36160", "group": "last-30-days", "lat": -37.9286632628911, "lon": 6.478598825969425, "alt_km": 294.7104119913947, "timestamp": "2025-12-14T09:36:21.781592+00:00", "meta": {"OBJECT_NAME": "STARLINK-36160", "OBJECT_ID": "2025-286M", "EPOCH": "2025-12-13T14:00:03.000384", "MEAN_MOTION": 15.96252271, "ECCENTRICITY": 7.402e-05, "INCLINATION": 53.1571, "RA_OF_ASC_NODE": 46.4166, "ARG_OF_PERICENTER": 61.1562, "MEAN_ANOMALY": 234.6019, "EPHEMERIS_TYPE": 0, "CLASSIFICATION_TYPE": "U", "NORAD_CAT_ID": 66936, "ELEMENT_SET_NO": 999, "REV_AT_EPOCH": 212, "BSTAR": -0.0029142221, "MEAN_MOTION_DOT": -0.01239987, "MEAN_MOTION_DDOT": 0.00047175209}, "tle": {"line1": "1 66936U 25286M   25347.58336806 -.01239987  47175-3 -29142-2 0  9991", "line2": "2 66936  53.1571  46.4166 0000740  61.1562 234.6019 15.96252271  2123"}}, "geometry": {"type": "Point", "coordinates": [6.478598825969425, -37.9286632628911]}}, {"type": "Feature", "properties": {"norad_id": 66937, "name": "STARLINK-36165", "group": "last-30-days", "lat": -36.896605265176, "lon": 7.9725076802942825, "alt_km": 294.45737982939136, "timestamp": "2025-12-14T09:36:21.781603+00:00", "meta": {"OBJECT_NAME": "STARLINK-36165", "OBJECT_ID": "2025-286N", "EPOCH": "2025-12-13T14:00:03.000384", "MEAN_MOTION": 15.96326523, "ECCENTRICITY": 9.777e-05, "INCLINATION": 53.157, "RA_OF_ASC_NODE": 46.4134, "ARG_OF_PERICENTER": 56.5915, "MEAN_ANOMALY": 240.5321, "EPHEMERIS_TYPE": 0, "CLASSIFICATION_TYPE": "U", "NORAD_CAT_ID": 66937, "ELEMENT_SET_NO": 999, "REV_AT_EPOCH": 212, "BSTAR": -0.0029066576, "MEAN_MOTION_DOT": -0.01241799, "MEAN_MOTION_DDOT": 0.0004733669}, "tle": {"line1": "1 66937U 25286N   25347.58336806 -.01241799  47337-3 -29067-2 0  9992", "line2": "2 66937  53.1570  46.4134 0000977  56.5915 240.5321 15.96326523  2124"}}, "geometry": {"type": "Point", "coordinates": [7.9725076802942825, -36.896605265176]}}, {"type": "Feature", "properties": {"norad_id": 66938, "name": "STARLINK-36155", "group": "last-30-days", "lat": -35.834370982423295, "lon": 9.442532343734173, "alt_km": 294.20269502296105, "timestamp": "2025-12-14T09:36:21.781613+00:00", "meta": {"OBJECT_NAME": "STARLINK-36155", "OBJECT_ID": "2025-286P", "EPOCH": "2025-12-13T14:00:03.000384", "MEAN_MOTION": 15.96403566, "ECCENTRICITY": 8.258e-05, "INCLINATION": 53.1569, "RA_OF_ASC_NODE": 46.4105, "ARG_OF_PERICENTER": 61.8843, "MEAN_ANOMALY": 236.6101, "EPHEMERIS_TYPE": 0, "CLASSIFICATION_TYPE": "U", "NORAD_CAT_ID": 66938, "ELEMENT_SET_NO": 999, "REV_AT_EPOCH": 212, "BSTAR": -0.0028998999, "MEAN_MOTION_DOT": -0.01244094, "MEAN_MOTION_DDOT": 0.00047533592}, "tle": {"line1": "1 66938U 25286P   25347.58336806 -.01244094  47534-3 -28999-2 0  9996", "line2": "2 66938  53.1569  46.4105 0000825  61.8843 236.6101 15.96403566  2127"}}, "geometry": {"type": "Point", "coordinates": [9.442532343734173, -35.834370982423295]}}, {"type": "Feature", "properties": {"norad_id": 66939, "name": "STARLINK-36154", "group": "last-30-days", "lat": -33.48221903848938, "lon": 12.486245714030714, "alt_km": 293.6078817601265, "timestamp": "2025-12-14T09:36:21.781625+00:00", "meta": {"OBJECT_NAME": "STARLINK-36154", "OBJECT_ID": "2025-286Q", "EPOCH": "2025-12-13T14:00:03.000384", "MEAN_MOTION": 15.96579532, "ECCENTRICITY": 9.152e-05, "INCLINATION": 53.1569, "RA_OF_ASC_NODE": 46.4044, "ARG_OF_PERICENTER": 57.24, "MEAN_ANOMALY": 244.2299, "EPHEMERIS_TYPE": 0, "CLASSIFICATION_TYPE": "U", "NORAD_CAT_ID": 66939, "ELEMENT_SET_NO": 999, "REV_AT_EPOCH": 212, "BSTAR": -0.0029221545, "MEAN_MOTION_DOT": -0.01265527, "MEAN_MOTION_DDOT": 0.00049123236}, "tle": {"line1": "1 66939U 25286Q   25347.58336806 -.01265527  49123-3 -29222-2 0  9997", "line2": "2 66939  53.1569  46.4044 0000915  57.2400 244.2299 15.96579532  2128"}}, "geometry": {"type": "Point", "coordinates": [12.486245714030714, -33.48221903848938]}}, {"type": "Feature", "properties": {"norad_id": 66940, "name": "STARLINK-36121", "group": "last-30-days", "lat": -32.41601018693664, "lon": 13.781926350316967, "alt_km": 293.28215750304116, "timestamp": "2025-12-14T09:36:21.781637+00:00", "meta": {"OBJECT_NAME": "STARLINK-36121", "OBJECT_ID": "2025-286R", "EPOCH": "2025-12-13T14:00:03.000384", "MEAN_MOTION": 15.96652562, "ECCENTRICITY": 8.37e-05, "INCLINATION": 53.1568, "RA_OF_ASC_NODE": 46.4014, "ARG_OF_PERICENTER": 53.6254, "MEAN_ANOMALY": 249.159, "EPHEMERIS_TYPE": 0, "CLASSIFICATION_TYPE": "U", "NORAD_CAT_ID": 66940, "ELEMENT_SET_NO": 999, "REV_AT_EPOCH": 212, "BSTAR": -0.0029142906, "MEAN_MOTION_DOT": -0.01267156, "MEAN_MOTION_DDOT": 0.00049275409}, "tle": {"line1": "1 66940U 25286R   25347.58336806 -.01267156  49275-3 -29143-2 0  9999", "line2": "2 66940  53.1568  46.4014 0000837  53.6254 249.1590 15.96652562  2129"}}, "geometry": {"type": "Point", "coordinates": [13.781926350316967, -32.41601018693664]}}, {"type": "Feature", "properties": {"norad_id": 66941, "name": "STARLINK-36088", "group": "last-30-days", "lat": -34.589301563466364, "lon": 11.087145205262548, "alt_km": 293.9306087734567, "timestamp": "2025-12-14T09:36:21.781648+00:00", "meta": {"OBJECT_NAME": "STARLINK-36088", "OBJECT_ID": "2025-286S", "EPOCH": "2025-12-13T14:00:03.000384", "MEAN_MOTION": 15.96501922, "ECCENTRICITY": 9.18e-05, "INCLINATION": 53.1568, "RA_OF_ASC_NODE": 46.4071, "ARG_OF_PERICENTER": 60.4178, "MEAN_ANOMALY": 239.6683, "EPHEMERIS_TYPE": 0, "CLASSIFICATION_TYPE": "U", "NORAD_CAT_ID": 66941, "ELEMENT_SET_NO": 999, "REV_AT_EPOCH": 212, "BSTAR": -0.0029292689, "MEAN_MOTION_DOT": -0.01263255, "MEAN_MOTION_DDOT": 0.00048923735}, "tle": {"line1": "1 66941U 25286S   25347.58336806 -.01263255  48924-3 -29293-2 0  9992", "line2": "2 66941  53.1568  46.4071 0000918  60.4178 239.6683 15.96501922  2124"}}, "geometry": {"type": "Point", "coordinates": [11.087145205262548, -34.589301563466364]}}, {"type": "Feature", "properties": {"norad_id": 66942, "name": "STARLINK-36100", "group": "last-30-days", "lat": -31.28454161489474, "lon": 15.10758532694185, "alt_km": 293.0196452661694, "timestamp": "2025-12-14T09:36:21.781658+00:00", "meta": {"OBJECT_NAME": "STARLINK-36100", "OBJECT_ID": "2025-286T", "EPOCH": "2025-12-13T14:00:03.000384", "MEAN_MOTION": 15.96732232, "ECCENTRICITY": 6.91e-05, "INCLINATION": 53.1567, "RA_OF_ASC_NODE": 46.3986, "ARG_OF_PERICENTER": 55.7879, "MEAN_ANOMALY": 248.3802, "EPHEMERIS_TYPE": 0, "CLASSIFICATION_TYPE": "U", "NORAD_CAT_ID": 66942, "ELEMENT_SET_NO": 999, "REV_AT_EPOCH": 205, "BSTAR": -0.0029221489, "MEAN_MOTION_DOT": -0.01276017, "MEAN_MOTION_DDOT": 0.00049945535}, "tle": {"line1": "1 66942U 25286T   25347.58336806 -.01276017  49946-3 -29221-2 0  9999", "line2": "2 66942  53.1567  46.3986 0000691  55.7879 248.3802 15.96732232  2053"}}, "geometry": {"type": "Point", "coordinates": [15.10758532694185, -31.28454161489474]}}, {"type": "Feature", "properties": {"norad_id": 66943, "name": "STARLINK-36109", "group": "last-30-days", "lat": -29.921441726374322, "lon": 16.643141442958772, "alt_km": 292.7502565508494, "timestamp": "2025-12-14T09:36:21.781669+00:00", "meta": {"OBJECT_NAME": "STARLINK-36109", "OBJECT_ID": "2025-286U", "EPOCH": "2025-12-13T14:00:03.000384", "MEAN_MOTION": 15.96830982, "ECCENTRICITY": 7.013e-05, "INCLINATION": 53.1566, "RA_OF_ASC_NODE": 46.3952, "ARG_OF_PERICENTER": 63.9887, "MEAN_ANOMALY": 241.8093, "EPHEMERIS_TYPE": 0, "CLASSIFICATION_TYPE": "U", "NORAD_CAT_ID": 66943, "ELEMENT_SET_NO": 999, "REV_AT_EPOCH": 205, "BSTAR": -0.002924356, "MEAN_MOTION_DOT": -0.01283832, "MEAN_MOTION_DDOT": 0.0005055552}, "tle": {"line1": "1 66943U 25286U   25347.58336806 -.01283832  50556-3 -29244-2 0  9997", "line2": "2 66943  53.1566  46.3952 0000701  63.9887 241.8093 15.96830982  2059"}}, "geometry": {"type": "Point", "coordinates": [16.643141442958772, -29.921441726374322]}}, {"type": "Feature", "properties": {"norad_id": 66944, "name": "STARLINK-36112", "group": "last-30-days", "lat": -28.8255193928978, "lon": 17.833577817301524, "alt_km": 292.61933591624074, "timestamp": "2025-12-14T09:36:21.781680+00:00", "meta": {"OBJECT_NAME": "STARLINK-36112", "OBJECT_ID": "2025-286V", "EPOCH": "2025-12-13T14:00:03.000384", "MEAN_MOTION": 15.96896621, "ECCENTRICITY": 0.00010323, "INCLINATION": 53.1566, "RA_OF_ASC_NODE": 46.3923, "ARG_OF_PERICENTER": 59.4559, "MEAN_ANOMALY": 247.6551, "EPHEMERIS_TYPE": 0, "CLASSIFICATION_TYPE": "U", "NORAD_CAT_ID": 66944, "ELEMENT_SET_NO": 999, "REV_AT_EPOCH": 212, "BSTAR": -0.0029039298, "MEAN_MOTION_DOT": -0.01279568, "MEAN_MOTION_DDOT": 0.00050284403}, "tle": {"line1": "1 66944U 25286V   25347.58336806 -.01279568  50284-3 -29039-2 0  9999", "line2": "2 66944  53.1566  46.3923 0001032  59.4559 247.6551 15.96896621  2125"}}, "geometry": {"type": "Point", "coordinates": [17.833577817301524, -28.8255193928978]}}]}